NORAD_CAT_ID,OBJECT_NAME,OBJECT_TYPE,EPOCH,MEAN_MOTION,ECCENTRICITY,INCLINATION,RA_OF_ASC_NODE,ARG_OF_PERICENTER,MEAN_ANOMALY,BSTAR,MEAN_MOTION_DOT,MEAN_MOTION_DDOT,TLE_LINE0,TLE_LINE1,TLE_LINE2,SEMIMAJOR_AXIS,PERIOD,APOGEE,PERIGEE,DECAYED
51861.0,STARLINK-3562,PAYLOAD,2022-10-09 05:08:51,15.08829775,0.0001705,53.2176,209.2441,58.8126,301.3033,-5.3838e-05,-1.145e-05,0.0,0 STARLINK-3562,1 51861U 22022K   22282.21448972 -.00001145  00000-0 -53838-4 0  9996,2 51861  53.2176 209.2441 0001705  58.8126 301.3033 15.08829775 34701,6917.9119999999975,95.438,540.956,538.597,0.0
51861.0,STARLINK-3562,PAYLOAD,2022-10-10 03:24:14,15.08838739,0.0001341999999999,53.2171,205.0814,59.3941,300.7183,5.5881e-05,6.02e-06,0.0,0 STARLINK-3562,1 51861U 22022K   22283.14183921  .00000602  00000-0  55881-4 0  9994,2 51861  53.2171 205.0814 0001342  59.3941 300.7183 15.08838739 34914,6917.884,95.438,540.678,538.821,0.0
51861.0,STARLINK-3562,PAYLOAD,2022-10-10 11:21:10,15.08839329,0.0001343,53.2171,203.5946,59.0648,301.0476,5.6239e-05,6.07e-06,0.0,0 STARLINK-3562,1 51861U 22022K   22283.47303909  .00000607  00000-0  56239-4 0  9993,2 51861  53.2171 203.5946 0001343  59.0648 301.0476 15.08839329 34897,6917.882,95.438,540.677,538.818,0.0
51861.0,STARLINK-3562,PAYLOAD,2022-10-11 03:15:03,15.08823025,0.0001649,53.217,200.6227,57.8725,302.2427,-1.867e-05,-5.85e-06,0.0,0 STARLINK-3562,1 51861U 22022K   22284.13545822 -.00000585  00000-0 -18670-4 0  9993,2 51861  53.2170 200.6227 0001649  57.8725 302.2427 15.08823025 34993,6917.932,95.439,540.938,538.6569999999998,0.0
51861.0,STARLINK-3562,PAYLOAD,2022-10-12 03:05:50,15.0883292,0.0001536,53.2175,196.1644,56.6836,303.4303,5.7504e-05,6.27e-06,0.0,0 STARLINK-3562,1 51861U 22022K   22285.12905997  .00000627  00000-0  57504-4 0  9990,2 51861  53.2175 196.1644 0001536  56.6836 303.4303 15.08832920 35211,6917.901999999999,95.438,540.83,538.7040000000002,0.0
51861.0,STARLINK-3562,PAYLOAD,2022-10-12 11:02:46,15.08833705,0.0001749,53.2178,194.6748,50.8487,309.266,2.1751e-05,5.8e-07,0.0,0 STARLINK-3562,1 51861U 22022K   22285.46026142  .00000058  00000-0  21751-4 0  9996,2 51861  53.2178 194.6748 0001749  50.8487 309.2660 15.08833705 35195,6917.9,95.438,540.975,538.555,0.0
51861.0,STARLINK-3562,PAYLOAD,2022-10-12 18:59:42,15.08823111,0.0001621,53.2164,193.1884,51.0651,309.0486,0.00021251,3.094e-05,0.0,0 STARLINK-3562,1 51861U 22022K   22285.79146222  .00003094  00000-0  21251-3 0  9991,2 51861  53.2164 193.1884 0001621  51.0651 309.0486 15.08823111 35240,6917.932,95.439,540.918,538.6759999999998,0.0
51861.0,STARLINK-3562,PAYLOAD,2022-10-13 10:53:33,15.08836374,0.000167,53.2169,190.215,54.6228,305.492,0.00018962,2.731e-05,0.0,0 STARLINK-3562,1 51861U 22022K   22286.45385849  .00002731  00000-0  18962-3 0  9997,2 51861  53.2169 190.2150 0001670  54.6228 305.4920 15.08836374 35341,6917.891,95.438,540.9119999999998,538.601,0.0
51861.0,STARLINK-3562,PAYLOAD,2022-10-14 10:44:20,15.08843946,0.00015,53.2172,185.7535,64.3809,295.7338,8.458e-05,1.059e-05,0.0,0 STARLINK-3562,1 51861U 22022K   22287.44745639  .00001059  00000-0  84580-4 0  9996,2 51861  53.2172 185.7535 0001500  64.3809 295.7338 15.08843946 35499,6917.868,95.437,540.771,538.696,0.0
51861.0,STARLINK-3562,PAYLOAD,2022-10-14 23:27:24,15.0885256,0.0001644,53.2163,183.376,51.9941,308.1199,0.00010819,1.435e-05,0.0,0 STARLINK-3562,1 51861U 22022K   22287.97736673  .00001435  00000-0  10819-3 0  9993,2 51861  53.2163 183.3760 0001644  51.9941 308.1199 15.08852560 35644,6917.842,95.437,540.844,538.57,0.0
51861.0,STARLINK-3562,PAYLOAD,2022-10-16 02:28:57,15.08852055,0.0001742,53.2165,178.321,52.3331,307.7819,-0.00011983,-2.195e-05,0.0,0 STARLINK-3562,1 51861U 22022K   22289.10344495 -.00002195  00000-0 -11983-3 0  9996,2 51861  53.2165 178.3210 0001742  52.3331 307.7819 15.08852055 35819,6917.844,95.437,540.914,538.503,0.0
51861.0,STARLINK-3562,PAYLOAD,2022-10-16 19:58:14,15.08824622,0.0001709,53.2167,175.0488,69.5437,290.5738,-0.00022578,-3.878e-05,0.0,0 STARLINK-3562,1 51861U 22022K   22289.83210884 -.00003878  00000-0 -22578-3 0  9991,2 51861  53.2167 175.0488 0001709  69.5437 290.5738 15.08824622 35922,6917.927,95.439,540.975,538.61,0.0
51861.0,STARLINK-3562,PAYLOAD,2022-10-17 02:19:46,15.0882769,0.0001712,53.2171,173.8599,57.1583,302.9574,-0.0001896999999999,-3.305e-05,0.0,0 STARLINK-3562,1 51861U 22022K   22290.09706834 -.00003305  00000-0 -18970-3 0  9992,2 51861  53.2171 173.8599 0001712  57.1583 302.9574 15.08827690 35895,6917.918000000002,95.438,540.967,538.599,0.0
51861.0,STARLINK-3562,PAYLOAD,2022-10-17 19:49:00,15.08833993,0.0001712,53.2165,170.5894,56.5685,303.547,3.3116999999999995e-05,2.39e-06,0.0,0 STARLINK-3562,1 51861U 22022K   22290.82570046  .00000239  00000-0  33117-4 0  9999,2 51861  53.2165 170.5894 0001712  56.5685 303.5470 15.08833993 36072,6917.899,95.438,540.948,538.5790000000002,0.0
51861.0,STARLINK-3562,PAYLOAD,2022-10-18 08:32:05,15.08834229,0.000173,53.2165,168.2102,55.6192,304.4963,0.00013329,1.834e-05,0.0,0 STARLINK-3562,1 51861U 22022K   22291.35561991  .00001834  00000-0  13329-3 0  9991,2 51861  53.2165 168.2102 0001730  55.6192 304.4963 15.08834229 36082,6917.898,95.438,540.96,538.566,0.0
51861.0,STARLINK-3562,PAYLOAD,2022-10-18 16:29:02,15.08823492,0.0001682,53.2164,166.7233,53.7819,306.3329,0.00013299,1.828e-05,0.0,0 STARLINK-3562,1 51861U 22022K   22291.68683185  .00001828  00000-0  13299-3 0  9996,2 51861  53.2164 166.7233 0001682  53.7819 306.3329 15.08823492 36201,6917.931,95.439,540.9590000000002,538.632,0.0
51861.0,STARLINK-3562,PAYLOAD,2022-10-19 00:25:58,15.08816378,0.000167,53.2164,165.2364,52.8224,307.2921,5.973600000000001e-05,6.62e-06,0.0,0 STARLINK-3562,1 51861U 22022K   22292.01804289  .00000662  00000-0  59736-4 0  9996,2 51861  53.2164 165.2364 0001670  52.8224 307.2921 15.08816378 36187,6917.953,95.439,540.9730000000002,538.6619999999998,0.0
51861.0,STARLINK-3562,PAYLOAD,2022-10-19 17:55:12,15.08836332,0.0001651,53.2162,161.9651,52.5578,307.5564,7.0036e-06,-1.77e-06,0.0,0 STARLINK-3562,1 51861U 22022K   22292.74667814 -.00000177  00000-0  70036-5 0  9996,2 51861  53.2162 161.9651 0001651  52.5578 307.5564 15.08836332 36363,6917.892,95.438,540.899,538.614,0.0
51861.0,STARLINK-3562,PAYLOAD,2022-10-20 01:52:08,15.08843184,0.000156,53.2165,160.4778,59.8611,300.2536,6.879899999999999e-05,8.07e-06,0.0,0 STARLINK-3562,1 51861U 22022K   22293.07787185  .00000807  00000-0  68799-4 0  9998,2 51861  53.2165 160.4778 0001560  59.8611 300.2536 15.08843184 36415,6917.871,95.437,540.815,538.656,0.0
51861.0,STARLINK-3562,PAYLOAD,2022-10-20 08:13:40,15.08846638,0.0001712,53.2163,159.2892,56.5077,303.6078,7.4861e-05,9.04e-06,0.0,0 STARLINK-3562,1 51861U 22022K   22293.34282937  .00000904  00000-0  74861-4 0  9998,2 51861  53.2163 159.2892 0001712  56.5077 303.6078 15.08846638 36386,6917.86,95.437,540.909,538.5409999999998,0.0
51861.0,STARLINK-3562,PAYLOAD,2022-10-21 00:07:32,15.08838968,0.0001665999999999,53.2169,156.3145,47.3434,312.7699,8.3595e-05,1.043e-05,0.0,0 STARLINK-3562,1 51861U 22022K   22294.00523351  .00001043  00000-0  83595-4 0  9999,2 51861  53.2169 156.3145 0001666  47.3434 312.7699 15.08838968 36550,6917.884,95.438,540.901,538.596,0.0
51861.0,STARLINK-3562,PAYLOAD,2022-10-21 08:04:27,15.08838721,0.000146,53.2166,154.8284,66.134,293.9805,0.00013047,1.789e-05,0.0,0 STARLINK-3562,1 51861U 22022K   22294.33643247  .00001789  00000-0  13047-3 0  9993,2 51861  53.2166 154.8284 0001460  66.1340 293.9805 15.08838721 36535,6917.884,95.438,540.759,538.739,0.0
51861.0,STARLINK-3562,PAYLOAD,2022-10-21 19:12:09,15.08848601,0.0001528,53.2166,152.7465,57.512,302.6020000000001,3.4262e-05,2.57e-06,0.0,0 STARLINK-3562,1 51861U 22022K   22294.80010845  .00000257  00000-0  34262-4 0  9999,2 51861  53.2166 152.7465 0001528  57.5120 302.6020 15.08848601 36601,6917.854,95.437,540.776,538.6619999999998,0.0
51861.0,STARLINK-3562,PAYLOAD,2022-10-21 22:22:54,15.08859402,0.0001147,53.2188,152.1516,74.089,286.0229,9.6206e-05,1.244e-05,0.0,0 STARLINK-3562,1 51861U 22022K   22294.93257718  .00001244  00000-0  96206-4 0  9998,2 51861  53.2188 152.1516 0001147  74.0890 286.0229 15.08859402 36697,6917.821,95.436,540.48,538.893,0.0
51861.0,STARLINK-3562,PAYLOAD,2022-10-22 07:55:14,15.08846005,0.000169,53.2192,150.3667,58.3154,301.8003,-2.5402e-05,-6.92e-06,0.0,0 STARLINK-3562,1 51861U 22022K   22295.33002873 -.00000692  00000-0 -25402-4 0  9991,2 51861  53.2192 150.3667 0001690  58.3154 301.8003 15.08846005 36758,6917.861999999999,95.437,540.896,538.558,0.0
51861.0,STARLINK-3562,PAYLOAD,2022-10-22 20:38:18,15.08850373,0.0001619,53.216,147.9883,57.4997,302.6152,7.1596e-05,8.52e-06,0.0,0 STARLINK-3562,1 51861U 22022K   22295.85993995  .00000852  00000-0  71596-4 0  9993,2 51861  53.2160 147.9883 0001619  57.4997 302.6152 15.08850373 36769,6917.849,95.437,540.8340000000002,538.594,0.0
51861.0,STARLINK-3562,PAYLOAD,2022-10-23 07:46:00,15.08847299,0.0001726,53.2158,145.9079,54.9944,305.121,3.1766e-05,2.18e-06,0.0,0 STARLINK-3562,1 51861U 22022K   22296.32362073  .00000218  00000-0  31766-4 0  9994,2 51861  53.2158 145.9079 0001726  54.9944 305.1210 15.08847299 36838,6917.858,95.437,540.9169999999998,538.529,0.0
51861.0,STARLINK-3562,PAYLOAD,2022-10-23 20:29:05,15.08851972,0.0001797,53.2154,143.5282,58.4969,301.6199,9.9202e-06,-1.3e-06,0.0,0 STARLINK-3562,1 51861U 22022K   22296.85353553 -.00000130  00000-0  99202-5 0  9999,2 51861  53.2154 143.5282 0001797  58.4969 301.6199 15.08851972 36917,6917.844,95.437,540.952,538.466,0.0
51861.0,STARLINK-3562,PAYLOAD,2022-10-24 12:22:57,15.08842519,0.0001666999999999,53.2157,140.5545,56.817,303.2982,8.3809e-06,-1.55e-06,0.0,0 STARLINK-3562,1 51861U 22022K   22297.51593794 -.00000155  00000-0  83809-5 0  9999,2 51861  53.2157 140.5545 0001667  56.8170 303.2982 15.08842519 37085,6917.873000000001,95.437,540.891,538.5840000000002,0.0
